{"type": "FeatureCollection", "features": [ {"type": "Feature", "properties": {"norad_id": 37216, "name": "COSMO-SKYMED 4", "group": "resource", "lat": 80.12319513786004, "lon": 45.408112862980694, "alt_km": 614.2012017574543, "timestamp": "2025-12-17T10:52:54.005781+00:00", "meta": {"OBJECT_NAME": "COSMO-SKYMED 4", "OBJECT_ID": "2010-060A", "EPOCH": "2025-12-16T23:06:31.125600", "MEAN_MOTION": 14.82151228, "ECCENTRICITY": 0.00014128, "INCLINATION": 97.8804, "RA_OF_ASC_NODE": 172.2221, "ARG_OF_PERICENTER": 80.409, "MEAN_ANOMALY": 279.7283, "EPHEMERIS_TYPE": 0, "CLASSIFICATION_TYPE": "U", "NORAD_CAT_ID": 37216, "ELEMENT_SET_NO": 999, "REV_AT_EPOCH": 81757, "BSTAR": 7.698059e-05, "MEAN_MOTION_DOT": 5.61e-06, "MEAN_MOTION_DDOT": 0}, "tle": {"line1": "1 37216U 10060A   25350.96286025  .00000561  00000+0  76981-4 0  9995", "line2": "2 37216  97.8804 172.2221 0001412  80.4090 279.7283 14.82151228817573"}}, "geometry": {"type": "Point", "coordinates": [45.408112862980694, 80.12319513786004]}}, {"type": "Feature", "properties": {"norad_id": 37387, "name": "RESOURCESAT-2", "group": "resource", "lat": 63.37393386267875, "lon": -107.04468713677181, "alt_km": 813.353520773333, "timestamp": "2025-12-17T10:52:54.005791+00:00", "meta": {"OBJECT_NAME": "RESOURCESAT-2", "OBJECT_ID": "2011-015A", "EPOCH": "2025-12-16T22:31:04.485504", "MEAN_MOTION": 14.21598972, "ECCENTRICITY": 0.00062443, "INCLINATION": 98.7874, "RA_OF_ASC_NODE": 54.4712, "ARG_OF_PERICENTER": 31.5047, "MEAN_ANOMALY": 328.6503, "EPHEMERIS_TYPE": 0, "CLASSIFICATION_TYPE": "U", "NORAD_CAT_ID": 37387, "ELEMENT_SET_NO": 999, "REV_AT_EPOCH": 76028, "BSTAR": 7.7569081e-05, "MEAN_MOTION_DOT": 1.26e-06, "MEAN_MOTION_DDOT": 0}, "tle": {"line1": "1 37387U 11015A   25350.93824636  .00000126  00000+0  77569-4 0  9998", "line2": "2 37387  98.7874  54.4712 0006244  31.5047 328.6503 14.21598972760280"}}, "geometry": {"type": "Point", "coordinates": [-107.04468713677181, 63.37393386267875]}}, {"type": "Feature", "properties": {"norad_id": 37781, "name": "HAIYANG-2A", "group": "resource", "lat": 21.105443405522404, "lon": 175.95666766039886, "alt_km": 967.5996993256813, "timestamp": "2025-12-17T10:52:54.005802+00:00", "meta": {"OBJECT_NAME": "HAIYANG-2A", "OBJECT_ID": "2011-043A", "EPOCH": "2025-12-16T23:39:59.515200", "MEAN_MOTION": 13.7883554, "ECCENTRICITY": 0.00016377, "INCLINATION": 99.3378, "RA_OF_ASC_NODE": 351.8555, "ARG_OF_PERICENTER": 78.1269, "MEAN_ANOMALY": 282.0066, "EPHEMERIS_TYPE": 0, "CLASSIFICATION_TYPE": "U", "NORAD_CAT_ID": 37781, "ELEMENT_SET_NO": 999, "REV_AT_EPOCH": 72157, "BSTAR": -3.3449467e-05, "MEAN_MOTION_DOT": -7.8e-07, "MEAN_MOTION_DDOT": 0}, "tle": {"line1": "1 37781U 11043A   25350.98610550 -.00000078  00000+0 -33449-4 0  9997", "line2": "2 37781  99.3378 351.8555 0001637  78.1269 282.0066 13.78835540721579"}}, "geometry": {"type": "Point", "coordinates": [175.95666766039886, 21.105443405522404]}}, {"type": "Feature", "properties": {"norad_id": 37791, "name": "RASAT", "group": "resource", "lat": -15.954924807354034, "lon": 82.96404438845812, "alt_km": 666.4548385854032, "timestamp": "2025-12-17T10:52:54.005813+00:00", "meta": {"OBJECT_NAME": "RASAT", "OBJECT_ID": "2011-044D", "EPOCH": "2025-12-17T00:17:17.903328", "MEAN_MOTION": 14.67915881, "ECCENTRICITY": 0.00217353, "INCLINATION": 98.0647, "RA_OF_ASC_NODE": 80.2061, "ARG_OF_PERICENTER": 52.0687, "MEAN_ANOMALY": 121.0341, "EPHEMERIS_TYPE": 0, "CLASSIFICATION_TYPE": "U", "NORAD_CAT_ID": 37791, "ELEMENT_SET_NO": 999, "REV_AT_EPOCH": 76645, "BSTAR": 9.2186999e-05, "MEAN_MOTION_DOT": 4.8e-06, "MEAN_MOTION_DDOT": 0}, "tle": {"line1": "1 37791U 11044D   25351.01201277  .00000480  00000+0  92187-4 0  9995", "line2": "2 37791  98.0647  80.2061 0021735  52.0687 121.0341 14.67915881766456"}}, "geometry": {"type": "Point", "coordinates": [82.96404438845812, -15.954924807354034]}}, {"type": "Feature", "properties": {"norad_id": 37841, "name": "SRMSAT", "group": "resource", "lat": -13.105608936569606, "lon": 39.55760823861626, "alt_km": 847.5546783998643, "timestamp": "2025-12-17T10:52:54.005823+00:00", "meta": {"OBJECT_NAME": "SRMSAT", "OBJECT_ID": "2011-058D", "EPOCH": "2025-12-16T14:54:06.323328", "MEAN_MOTION": 14.11512789, "ECCENTRICITY": 0.00118578, "INCLINATION": 19.9718, "RA_OF_ASC_NODE": 84.4606, "ARG_OF_PERICENTER": 356.2023, "MEAN_ANOMALY": 42.8672, "EPHEMERIS_TYPE": 0, "CLASSIFICATION_TYPE": "U", "NORAD_CAT_ID": 37841, "ELEMENT_SET_NO": 999, "REV_AT_EPOCH": 73199, "BSTAR": 8.0527492e-05, "MEAN_MOTION_DOT": 4.13e-06, "MEAN_MOTION_DDOT": 0}, "tle": {"line1": "1 37841U 11058D   25350.62090652  .00000413  00000+0  80527-4 0  9996", "line2": "2 37841  19.9718  84.4606 0011857 356.2023  42.8672 14.11512789731998"}}, "geometry": {"type": "Point", "coordinates": [39.55760823861626, -13.105608936569606]}}, {"type": "Feature", "properties": {"norad_id": 38012, "name": "PLEIADES 1A", "group": "resource", "lat": -18.95379273170674, "lon": 66.98140419279473, "alt_km": 702.8816352405784, "timestamp": "2025-12-17T10:52:54.005833+00:00", "meta": {"OBJECT_NAME": "PLEIADES 1A", "OBJECT_ID": "2011-076F", "EPOCH": "2025-12-16T23:54:44.981280", "MEAN_MOTION": 14.58565283, "ECCENTRICITY": 0.00012071, "INCLINATION": 98.1822, "RA_OF_ASC_NODE": 63.6992, "ARG_OF_PERICENTER": 71.4407, "MEAN_ANOMALY": 31.0677, "EPHEMERIS_TYPE": 0, "CLASSIFICATION_TYPE": "U", "NORAD_CAT_ID": 38012, "ELEMENT_SET_NO": 999, "REV_AT_EPOCH": 74543, "BSTAR": 6.6615348e-05, "MEAN_MOTION_DOT": 2.64e-06, "MEAN_MOTION_DDOT": 0}, "tle": {"line1": "1 38012U 11076F   25350.99635395  .00000264  00000+0  66615-4 0  9992", "line2": "2 38012  98.1822  63.6992 0001207  71.4407  31.0677 14.58565283745438"}}, "geometry": {"type": "Point", "coordinates": [66.98140419279473, -18.95379273170674]}}, {"type": "Feature", "properties": {"norad_id": 38038, "name": "ZIYUAN 1-02C (ZY 1-02C)", "group": "resource", "lat": -77.48602663968805, "lon": -164.56531455324034, "alt_km": 776.0776563573563, "timestamp": "2025-12-17T10:52:54.005844+00:00", "meta": {"OBJECT_NAME": "ZIYUAN 1-02C (ZY 1-02C)", "OBJECT_ID": "2011-079A", "EPOCH": "2025-12-17T00:13:25.154688", "MEAN_MOTION": 14.38016908, "ECCENTRICITY": 0.0007318, "INCLINATION": 98.4333, "RA_OF_ASC_NODE": 56.9444, "ARG_OF_PERICENTER": 126.9678, "MEAN_ANOMALY": 356.0445, "EPHEMERIS_TYPE": 0, "CLASSIFICATION_TYPE": "U", "NORAD_CAT_ID": 38038, "ELEMENT_SET_NO": 999, "REV_AT_EPOCH": 73302, "BSTAR": 0.0001388557, "MEAN_MOTION_DOT": 3.77e-06, "MEAN_MOTION_DDOT": 0}, "tle": {"line1": "1 38038U 11079A   25351.00931892  .00000377  00000+0  13886-3 0  9993", "line2": "2 38038  98.4333  56.9444 0007318 126.9678 356.0445 14.38016908733026"}}, "geometry": {"type": "Point", "coordinates": [-164.56531455324034, -77.48602663968805]}}, {"type": "Feature", "properties": {"norad_id": 38338, "name": "ARIRANG-3 (KOMPSAT-3)", "group": "resource", "lat": -66.74161576231693, "lon": -33.98391159016203, "alt_km": 691.7810174948409, "timestamp": "2025-12-17T10:52:54.005855+00:00", "meta": {"OBJECT_NAME": "ARIRANG-3 (KOMPSAT-3)", "OBJECT_ID": "2012-025B", "EPOCH": "2025-12-16T23:41:34.263168", "MEAN_MOTION": 14.6171842, "ECCENTRICITY": 0.00050858, "INCLINATION": 98.3327, "RA_OF_ASC_NODE": 305.6086, "ARG_OF_PERICENTER": 324.2697, "MEAN_ANOMALY": 35.8163, "EPHEMERIS_TYPE": 0, "CLASSIFICATION_TYPE": "U", "NORAD_CAT_ID": 38338, "ELEMENT_SET_NO": 999, "REV_AT_EPOCH": 72472, "BSTAR": 0.00010582957, "MEAN_MOTION_DOT": 4.79e-06, "MEAN_MOTION_DDOT": 0}, "tle": {"line1": "1 38338U 12025B   25350.98720212  .00000479  00000+0  10583-3 0  9990", "line2": "2 38338  98.3327 305.6086 0005085 324.2697  35.8163 14.61718420724720"}}, "geometry": {"type": "Point", "coordinates": [-33.98391159016203, -66.74161576231693]}}, {"type": "Feature", "properties": {"norad_id": 38709, "name": "EXACTVIEW-1 (ADS-1B)", "group": "resource", "lat": 25.81740178079269, "lon": 95.56275716607571, "alt_km": 802.6269369727042, "timestamp": "2025-12-17T10:52:54.005865+00:00", "meta": {"OBJECT_NAME": "EXACTVIEW-1 (ADS-1B)", "OBJECT_ID": "2012-039C", "EPOCH": "2025-12-16T21:16:38.627616", "MEAN_MOTION": 14.24909684, "ECCENTRICITY": 0.00104612, "INCLINATION": 98.9638, "RA_OF_ASC_NODE": 99.3636, "ARG_OF_PERICENTER": 342.063, "MEAN_ANOMALY": 18.0177, "EPHEMERIS_TYPE": 0, "CLASSIFICATION_TYPE": "U", "NORAD_CAT_ID": 38709, "ELEMENT_SET_NO": 999, "REV_AT_EPOCH": 69674, "BSTAR": 7.1634119e-05, "MEAN_MOTION_DOT": 1.21e-06, "MEAN_MOTION_DDOT": 0}, "tle": {"line1": "1 38709U 12039C   25350.88655819  .00000121  00000+0  71634-4 0  9995", "line2": "2 38709  98.9638  99.3636 0010461 342.0630  18.0177 14.24909684696741"}}, "geometry": {"type": "Point", "coordinates": [95.56275716607571, 25.81740178079269]}}, {"type": "Feature", "properties": {"norad_id": 38755, "name": "SPOT 6", "group": "resource", "lat": -80.55441113528401, "lon": 176.5915914521799, "alt_km": 705.837185723979, "timestamp": "2025-12-17T10:52:54.005875+00:00", "meta": {"OBJECT_NAME": "SPOT 6", "OBJECT_ID": "2012-047A", "EPOCH": "2025-12-16T23:47:27.870720", "MEAN_MOTION": 14.58607058, "ECCENTRICITY": 0.00011831, "INCLINATION": 98.1572, "RA_OF_ASC_NODE": 55.6979, "ARG_OF_PERICENTER": 98.8261, "MEAN_ANOMALY": 261.3072, "EPHEMERIS_TYPE": 0, "CLASSIFICATION_TYPE": "U", "NORAD_CAT_ID": 38755, "ELEMENT_SET_NO": 999, "REV_AT_EPOCH": 70649, "BSTAR": 6.8482845e-05, "MEAN_MOTION_DOT": 2.73e-06, "MEAN_MOTION_DDOT": 0}, "tle": {"line1": "1 38755U 12047A   25350.99129480  .00000273  00000+0  68483-4 0  9993", "line2": "2 38755  98.1572  55.6979 0001183  98.8261 261.3072 14.58607058706491"}}, "geometry": {"type": "Point", "coordinates": [176.5915914521799, -80.55441113528401]}}]}